CCSDS_OMM_VERS = 2.0
CREATION_DATE  = 
ORIGINATOR     = 

OBJECT_NAME    = UNKNOWN
OBJECT_ID      = 
CENTER_NAME    = EARTH
REF_FRAME      = TEME
TIME_SYSTEM    = UTC
MEAN_ELEMENT_THEORY = SGP/SGP4

EPOCH          = 2025-12-02T04:54:31.796352
MEAN_MOTION    = 14.05956757
ECCENTRICITY   = .0171672
INCLINATION    = 99.9476
RA_OF_ASC_NODE = 326.7882
ARG_OF_PERICENTER = 199.3533
MEAN_ANOMALY   = 160.1059

EPHEMERIS_TYPE = 0
CLASSIFICATION_TYPE = U
NORAD_CAT_ID   = 87565
ELEMENT_SET_NO = 999
REV_AT_EPOCH   = 61495
BSTAR          = .81637E-3
MEAN_MOTION_DOT = .1475E-4
MEAN_MOTION_DDOT = 0

CCSDS_OMM_VERS = 2.0
CREATION_DATE  = 
ORIGINATOR     = 

OBJECT_NAME    = UNKNOWN
OBJECT_ID      = 
CENTER_NAME    = EARTH
REF_FRAME      = TEME
TIME_SYSTEM    = UTC
MEAN_ELEMENT_THEORY = SGP/SGP4

EPOCH          = 2025-12-06T06:33:27.154080
MEAN_MOTION    = 12.68540515
ECCENTRICITY   = .0055535
INCLINATION    = 101.9878
RA_OF_ASC_NODE = 157.3779
ARG_OF_PERICENTER = 266.0503
MEAN_ANOMALY   = 279.1171

EPHEMERIS_TYPE = 0
CLASSIFICATION_TYPE = U
NORAD_CAT_ID   = 87569
ELEMENT_SET_NO = 999
REV_AT_EPOCH   = 55764
BSTAR          = .78622E-4
MEAN_MOTION_DOT = -.33E-6
MEAN_MOTION_DDOT = 0

CCSDS_OMM_VERS = 2.0
CREATION_DATE  = 
ORIGINATOR     = 

OBJECT_NAME    = UNKNOWN
OBJECT_ID      = 
CENTER_NAME    = EARTH
REF_FRAME      = TEME
TIME_SYSTEM    = UTC
MEAN_ELEMENT_THEORY = SGP/SGP4

EPOCH          = 2025-12-07T02:16:10.328736
MEAN_MOTION    = 14.40054684
ECCENTRICITY   = .0019829
INCLINATION    = 74.0238
RA_OF_ASC_NODE = 113.3337
ARG_OF_PERICENTER = 153.7328
MEAN_ANOMALY   = 206.4837

EPHEMERIS_TYPE = 0
CLASSIFICATION_TYPE = U
NORAD_CAT_ID   = 87587
ELEMENT_SET_NO = 999
REV_AT_EPOCH   = 63299
BSTAR          = .17328E-3
MEAN_MOTION_DOT = .521E-5
MEAN_MOTION_DDOT = 0

CCSDS_OMM_VERS = 2.0
CREATION_DATE  = 
ORIGINATOR     = 

OBJECT_NAME    = UNKNOWN
OBJECT_ID      = 
CENTER_NAME    = EARTH
REF_FRAME      = TEME
TIME_SYSTEM    = UTC
MEAN_ELEMENT_THEORY = SGP/SGP4

EPOCH          = 2025-12-03T01:38:10.668192
MEAN_MOTION    = 14.10305378
ECCENTRICITY   = .0025987
INCLINATION    = 98.7885
RA_OF_ASC_NODE = 14.4031
ARG_OF_PERICENTER = 311.4342
MEAN_ANOMALY   = 78.7710

EPHEMERIS_TYPE = 0
CLASSIFICATION_TYPE = U
NORAD_CAT_ID   = 87590
ELEMENT_SET_NO = 999
REV_AT_EPOCH   = 15288
BSTAR          = .4536E-3
MEAN_MOTION_DOT = .764E-5
MEAN_MOTION_DDOT = 0

CCSDS_OMM_VERS = 2.0
CREATION_DATE  = 
ORIGINATOR     = 

OBJECT_NAME    = UNKNOWN
OBJECT_ID      = 
CENTER_NAME    = EARTH
REF_FRAME      = TEME
TIME_SYSTEM    = UTC
MEAN_ELEMENT_THEORY = SGP/SGP4

EPOCH          = 2025-12-02T00:01:10.377120
MEAN_MOTION    = 12.46878095
ECCENTRICITY   = .063383
INCLINATION    = 66.0341
RA_OF_ASC_NODE = 169.6820
ARG_OF_PERICENTER = 143.6568
MEAN_ANOMALY   = 8.8853

EPHEMERIS_TYPE = 0
CLASSIFICATION_TYPE = U
NORAD_CAT_ID   = 87616
ELEMENT_SET_NO = 999
REV_AT_EPOCH   = 53489
BSTAR          = .15843E-2
MEAN_MOTION_DOT = .421E-5
MEAN_MOTION_DDOT = 0

CCSDS_OMM_VERS = 2.0
CREATION_DATE  = 
ORIGINATOR     = 

OBJECT_NAME    = UNKNOWN
OBJECT_ID      = 
CENTER_NAME    = EARTH
REF_FRAME      = TEME
TIME_SYSTEM    = UTC
MEAN_ELEMENT_THEORY = SGP/SGP4

EPOCH          = 2025-12-07T06:31:01.042176
MEAN_MOTION    = 14.69926408
ECCENTRICITY   = .0096835
INCLINATION    = 98.6805
RA_OF_ASC_NODE = 278.3585
ARG_OF_PERICENTER = 265.7649
MEAN_ANOMALY   = 93.2485

EPHEMERIS_TYPE = 0
CLASSIFICATION_TYPE = U
NORAD_CAT_ID   = 87624
ELEMENT_SET_NO = 999
REV_AT_EPOCH   = 57947
BSTAR          = .15355E-2
MEAN_MOTION_DOT = .9831E-4
MEAN_MOTION_DDOT = 0

CCSDS_OMM_VERS = 2.0
CREATION_DATE  = 
ORIGINATOR     = 

OBJECT_NAME    = UNKNOWN
OBJECT_ID      = 
CENTER_NAME    = EARTH
REF_FRAME      = TEME
TIME_SYSTEM    = UTC
MEAN_ELEMENT_THEORY = SGP/SGP4

EPOCH          = 2025-11-28T05:30:08.132256
MEAN_MOTION    = 14.61100605
ECCENTRICITY   = .0033059
INCLINATION    = 100.2695
RA_OF_ASC_NODE = 144.0175
ARG_OF_PERICENTER = 322.6319
MEAN_ANOMALY   = 37.2575

EPHEMERIS_TYPE = 0
CLASSIFICATION_TYPE = U
NORAD_CAT_ID   = 87650
ELEMENT_SET_NO = 999
REV_AT_EPOCH   = 7764
BSTAR          = .2648E-2
MEAN_MOTION_DOT = .13074E-3
MEAN_MOTION_DDOT = 0

CCSDS_OMM_VERS = 2.0
CREATION_DATE  = 
ORIGINATOR     = 

OBJECT_NAME    = UNKNOWN
OBJECT_ID      = 
CENTER_NAME    = EARTH
REF_FRAME      = TEME
TIME_SYSTEM    = UTC
MEAN_ELEMENT_THEORY = SGP/SGP4

EPOCH          = 2025-12-06T19:45:29.028096
MEAN_MOTION    = 14.27800851
ECCENTRICITY   = .0063857
INCLINATION    = 70.8576
RA_OF_ASC_NODE = 19.4497
ARG_OF_PERICENTER = 281.8043
MEAN_ANOMALY   = 77.5928

EPHEMERIS_TYPE = 0
CLASSIFICATION_TYPE = U
NORAD_CAT_ID   = 87672
ELEMENT_SET_NO = 999
REV_AT_EPOCH   = 62361
BSTAR          = .15567E-2
MEAN_MOTION_DOT = .3885E-4
MEAN_MOTION_DDOT = 0

CCSDS_OMM_VERS = 2.0
CREATION_DATE  = 
ORIGINATOR     = 

OBJECT_NAME    = UNKNOWN
OBJECT_ID      = 
CENTER_NAME    = EARTH
REF_FRAME      = TEME
TIME_SYSTEM    = UTC
MEAN_ELEMENT_THEORY = SGP/SGP4

EPOCH          = 2025-12-06T08:50:00.776256
MEAN_MOTION    = 13.71091164
ECCENTRICITY   = .0156358
INCLINATION    = 66.7355
RA_OF_ASC_NODE = 113.7707
ARG_OF_PERICENTER = 166.8780
MEAN_ANOMALY   = 193.6430

EPHEMERIS_TYPE = 0
CLASSIFICATION_TYPE = U
NORAD_CAT_ID   = 87681
ELEMENT_SET_NO = 999
REV_AT_EPOCH   = 60096
BSTAR          = .24654E-2
MEAN_MOTION_DOT = .2334E-4
MEAN_MOTION_DDOT = 0

CCSDS_OMM_VERS = 2.0
CREATION_DATE  = 
ORIGINATOR     = 

OBJECT_NAME    = UNKNOWN
OBJECT_ID      = 
CENTER_NAME    = EARTH
REF_FRAME      = TEME
TIME_SYSTEM    = UTC
MEAN_ELEMENT_THEORY = SGP/SGP4

EPOCH          = 2025-12-07T11:52:40.918656
MEAN_MOTION    = 14.00315092
ECCENTRICITY   = .0578312
INCLINATION    = 65.7947
RA_OF_ASC_NODE = 7.6459
ARG_OF_PERICENTER = 50.2238
MEAN_ANOMALY   = 314.8311

EPHEMERIS_TYPE = 0
CLASSIFICATION_TYPE = U
NORAD_CAT_ID   = 87690
ELEMENT_SET_NO = 999
REV_AT_EPOCH   = 60664
BSTAR          = .10122E-2
MEAN_MOTION_DOT = .6619E-4
MEAN_MOTION_DDOT = 0

CCSDS_OMM_VERS = 2.0
CREATION_DATE  = 
ORIGINATOR     = 

OBJECT_NAME    = UNKNOWN
OBJECT_ID      = 
CENTER_NAME    = EARTH
REF_FRAME      = TEME
TIME_SYSTEM    = UTC
MEAN_ELEMENT_THEORY = SGP/SGP4

EPOCH          = 2025-12-06T11:20:58.254144
MEAN_MOTION    = 14.64298872
ECCENTRICITY   = .0104654
INCLINATION    = 98.6721
RA_OF_ASC_NODE = 163.7211
ARG_OF_PERICENTER = 287.4266
MEAN_ANOMALY   = 101.3380

EPHEMERIS_TYPE = 0
CLASSIFICATION_TYPE = U
NORAD_CAT_ID   = 87706
ELEMENT_SET_NO = 999
REV_AT_EPOCH   = 57760
BSTAR          = .1496E-2
MEAN_MOTION_DOT = .8498E-4
MEAN_MOTION_DDOT = 0

CCSDS_OMM_VERS = 2.0
CREATION_DATE  = 
ORIGINATOR     = 

OBJECT_NAME    = UNKNOWN
OBJECT_ID      = 
CENTER_NAME    = EARTH
REF_FRAME      = TEME
TIME_SYSTEM    = UTC
MEAN_ELEMENT_THEORY = SGP/SGP4

EPOCH          = 2025-12-07T12:32:35.328768
MEAN_MOTION    = 14.95997473
ECCENTRICITY   = .0019986
INCLINATION    = 82.8669
RA_OF_ASC_NODE = 260.6235
ARG_OF_PERICENTER = 65.8381
MEAN_ANOMALY   = 294.4929

EPHEMERIS_TYPE = 0
CLASSIFICATION_TYPE = U
NORAD_CAT_ID   = 87725
ELEMENT_SET_NO = 999
REV_AT_EPOCH   = 63314
BSTAR          = .64844E-2
MEAN_MOTION_DOT = .73694E-3
MEAN_MOTION_DDOT = 0

