UNKNOWN                 
1 87565U          25336.20453468  .00001475  00000+0  81637-3 0  9996
2 87565  99.9476 326.7882 0171672 199.3533 160.1059 14.05956757614956
UNKNOWN                 
1 87569U          25340.27323095 -.00000033  00000+0  78622-4 0  9995
2 87569 101.9878 157.3779 0055535 266.0503 279.1171 12.68540515557647
UNKNOWN                 
1 87587U          25341.09456399  .00000521  00000+0  17328-3 0  9996
2 87587  74.0238 113.3337 0019829 153.7328 206.4837 14.40054684632995
UNKNOWN                 
1 87590U          25337.06817903  .00000764  00000+0  45360-3 0  9990
2 87590  98.7885  14.4031 0025987 311.4342  78.7710 14.10305378152884
UNKNOWN                 
1 87616U          25336.00081455  .00000421  00000+0  15843-2 0  9999
2 87616  66.0341 169.6820 0633830 143.6568   8.8853 12.46878095534899
UNKNOWN                 
1 87624U          25341.27153984  .00009831  00000+0  15355-2 0  9992
2 87624  98.6805 278.3585 0096835 265.7649  93.2485 14.69926408579475
UNKNOWN                 
1 87650U          25332.22926079  .00013074  00000+0  26480-2 0  9994
2 87650 100.2695 144.0175 0033059 322.6319  37.2575 14.61100605 77646
UNKNOWN                 
1 87672U          25340.82325264  .00003885  00000+0  15567-2 0  9995
2 87672  70.8576  19.4497 0063857 281.8043  77.5928 14.27800851623616
UNKNOWN                 
1 87681U          25340.36806454  .00002334  00000+0  24654-2 0  9994
2 87681  66.7355 113.7707 0156358 166.8780 193.6430 13.71091164600964
UNKNOWN                 
1 87690U          25341.49491804  .00006619  00000+0  10122-2 0  9993
2 87690  65.7947   7.6459 0578312  50.2238 314.8311 14.00315092606645
UNKNOWN                 
1 87706U          25340.47289646  .00008498  00000+0  14960-2 0  9998
2 87706  98.6721 163.7211 0104654 287.4266 101.3380 14.64298872577601
UNKNOWN                 
1 87725U          25341.52263112  .00073694  00000+0  64844-2 0  9992
2 87725  82.8669 260.6235 0019986  65.8381 294.4929 14.95997473633142
